NORAD_CAT_ID,OBJECT_NAME,OBJECT_TYPE,EPOCH,MEAN_MOTION,ECCENTRICITY,INCLINATION,RA_OF_ASC_NODE,ARG_OF_PERICENTER,MEAN_ANOMALY,BSTAR,MEAN_MOTION_DOT,MEAN_MOTION_DDOT,TLE_LINE0,TLE_LINE1,TLE_LINE2,SEMIMAJOR_AXIS,PERIOD,APOGEE,PERIGEE,DECAYED
53530.0,STARLINK-4482,PAYLOAD,2023-02-06 10:13:26,15.08850623,0.0001329,53.2179,94.6024,87.3205,272.794,3.9379e-05,3.39e-06,0.0,0 STARLINK-4482,1 53530U 22101D   23037.42599702  .00000339  00000-0  39379-4 0  9995,2 53530  53.2179  94.6024 0001329  87.3205 272.7940 15.08850623 25983,6917.848,95.437,540.632,538.794,0.0
53530.0,STARLINK-4482,PAYLOAD,2023-02-06 13:24:11,15.08855123,0.0001291,53.2165,94.0058,98.4084,261.7054,6.6047e-05,7.64e-06,0.0,0 STARLINK-4482,1 53530U 22101D   23037.55847193  .00000764  00000-0  66047-4 0  9993,2 53530  53.2165  94.0058 0001291  98.4084 261.7054 15.08855123 26003,6917.834,95.437,540.592,538.806,0.0
53530.0,STARLINK-4482,PAYLOAD,2023-02-07 03:42:40,15.08841749,0.0001479,53.2149,91.3288,97.3434,262.7727,0.00012038,1.628e-05,0.0,0 STARLINK-4482,1 53530U 22101D   23038.15463830  .00001628  00000-0  12038-3 0  9992,2 53530  53.2149  91.3288 0001479  97.3434 262.7727 15.08841749 26091,6917.875,95.437,540.763,538.717,0.0
53530.0,STARLINK-4482,PAYLOAD,2023-02-07 10:04:12,15.08850527,0.0001377,53.2157,90.1378,110.0667,250.0473,0.00014056,1.95e-05,0.0,0 STARLINK-4482,1 53530U 22101D   23038.41959151  .00001950  00000-0  14056-3 0  9997,2 53530  53.2157  90.1378 0001377 110.0667 250.0473 15.08850527 26132,6917.848,95.437,540.666,538.761,0.0
53530.0,STARLINK-4482,PAYLOAD,2023-02-08 11:30:23,15.08845381,0.0001232,53.2181,85.3853,95.3319,264.7814,2.5133e-05,1.12e-06,0.0,0 STARLINK-4482,1 53530U 22101D   23039.47943686  .00000112  00000-0  25133-4 0  9998,2 53530  53.2181  85.3853 0001232  95.3319 264.7814 15.08845381 26292,6917.864,95.437,540.581,538.877,0.0
53530.0,STARLINK-4482,PAYLOAD,2023-02-09 03:24:15,15.08828206,0.0001306,53.2174,82.4099,118.2869,241.8255,-0.00016418,-2.899e-05,0.0,0 STARLINK-4482,1 53530U 22101D   23040.14184652 -.00002899  00000-0 -16418-3 0  9995,2 53530  53.2174  82.4099 0001306 118.2869 241.8255 15.08828206 26394,6917.916,95.438,540.685,538.878,0.0
53530.0,STARLINK-4482,PAYLOAD,2023-02-09 11:21:10,15.08839284,0.0001405,53.2178,80.9238,118.8353,241.2781,3.9756e-05,3.45e-06,0.0,0 STARLINK-4482,1 53530U 22101D   23040.47304262  .00000345  00000-0  39756-4 0  9995,2 53530  53.2178  80.9238 0001405 118.8353 241.2781 15.08839284 26442,6917.883,95.438,540.72,538.776,0.0
53530.0,STARLINK-4482,PAYLOAD,2023-02-09 19:18:07,15.08836149,0.0001345,53.2172,79.4372,134.2751,225.8352,0.0001221,1.656e-05,0.0,0 STARLINK-4482,1 53530U 22101D   23040.80424811  .00001656  00000-0  12210-3 0  9996,2 53530  53.2172  79.4372 0001345 134.2751 225.8352 15.08836149 26499,6917.892,95.438,540.688,538.827,0.0
53530.0,STARLINK-4482,PAYLOAD,2023-02-10 03:15:02,15.08832294,0.0001147,53.2183,77.9516,111.5143,248.5972,-9.8862e-06,-4.45e-06,0.0,0 STARLINK-4482,1 53530U 22101D   23041.13545081 -.00000445  00000-0 -98862-5 0  9992,2 53530  53.2183  77.9516 0001147 111.5143 248.5972 15.08832294 26540,6917.904,95.438,540.562,538.975,0.0
53530.0,STARLINK-4482,PAYLOAD,2023-02-10 19:08:53,15.08841752,9.39e-05,53.2168,74.9757,97.8254,262.2845,0.0001116,1.489e-05,0.0,0 STARLINK-4482,1 53530U 22101D   23041.79784711  .00001489  00000-0  11160-3 0  9990,2 53530  53.2168  74.9757 0000939  97.8254 262.2845 15.08841752 26646,6917.875,95.437,540.39,539.09,0.0
53530.0,STARLINK-4482,PAYLOAD,2023-02-11 06:16:36,15.08839618,0.0001004,53.2168,72.8938,100.1015,260.0091,0.00015804,2.228e-05,0.0,0 STARLINK-4482,1 53530U 22101D   23042.26153086  .00002228  00000-0  15804-3 0  9999,2 53530  53.2168  72.8938 0001004 100.1015 260.0091 15.08839618 26716,6917.882,95.438,540.441,539.052,0.0
53530.0,STARLINK-4482,PAYLOAD,2023-02-11 18:59:41,15.08841496,0.0001408,53.2185,70.5171,76.7355,283.3794,0.00010725,1.419e-05,0.0,0 STARLINK-4482,1 53530U 22101D   23042.79145082  .00001419  00000-0  10725-3 0  9992,2 53530  53.2185  70.5171 0001408  76.7355 283.3794 15.08841496 26795,6917.876,95.437,540.715,538.767,0.0
53530.0,STARLINK-4482,PAYLOAD,2023-02-12 04:32:00,15.08833443,0.000116,53.2166,68.731,79.97,280.1423,7.7772e-05,9.5e-06,0.0,0 STARLINK-4482,1 53530U 22101D   23043.18889628  .00000950  00000-0  77772-4 0  9992,2 53530  53.2166  68.7310 0001160  79.9700 280.1423 15.08833443 26856,6917.9,95.438,540.568,538.963,0.0
53530.0,STARLINK-4482,PAYLOAD,2023-02-12 07:42:46,15.08835105,0.0001057,53.217,68.1349,86.7488,273.3625,0.00010639,1.406e-05,0.0,0 STARLINK-4482,1 53530U 22101D   23043.32137573  .00001406  00000-0  10639-3 0  9998,2 53530  53.2170  68.1349 0001057  86.7488 273.3625 15.08835105 26878,6917.895,95.438,540.492,539.029,0.0
53530.0,STARLINK-4482,PAYLOAD,2023-02-12 18:50:28,15.08844224,0.0001271,53.217,66.0533,83.5655,276.5482,0.00012152,1.647e-05,0.0,0 STARLINK-4482,1 53530U 22101D   23043.78505210  .00001647  00000-0  12152-3 0  9994,2 53530  53.2170  66.0533 0001271  83.5655 276.5482 15.08844224 26945,6917.867,95.437,540.612,538.853,0.0
53530.0,STARLINK-4482,PAYLOAD,2023-02-13 02:47:24,15.08839458,0.0001451,53.2171,64.567,86.2368,273.879,5.4016e-05,5.72e-06,0.0,0 STARLINK-4482,1 53530U 22101D   23044.11625654  .00000572  00000-0  54016-4 0  9999,2 53530  53.2171  64.5670 0001451  86.2368 273.8790 15.08839458 26992,6917.882,95.438,540.751,538.743,0.0
53530.0,STARLINK-4482,PAYLOAD,2023-02-13 10:44:19,15.08853639,0.0001314,53.2168,63.0795,92.0392,268.0751,0.00017368,2.478e-05,0.0,0 STARLINK-4482,1 53530U 22101D   23044.44744796  .00002478  00000-0  17368-3 0  9999,2 53530  53.2168  63.0795 0001314  92.0392 268.0751 15.08853639 27047,6917.839,95.437,540.613,538.795,0.0
53530.0,STARLINK-4482,PAYLOAD,2023-02-14 02:38:11,15.08834206,0.0001175,53.2172,60.1066,92.368,267.7447,0.0001521,2.133e-05,0.0,0 STARLINK-4482,1 53530U 22101D   23045.10985956  .00002133  00000-0  15210-3 0  9990,2 53530  53.2172  60.1066 0001175  92.3680 267.7447 15.08834206 27147,6917.898,95.438,540.576,538.95,0.0
53530.0,STARLINK-4482,PAYLOAD,2023-02-14 07:24:21,15.0884061,0.0001188,53.2173,59.2144,95.4097,264.7031,0.00023668,3.481e-05,0.0,0 STARLINK-4482,1 53530U 22101D   23045.30857845  .00003481  00000-0  23668-3 0  9990,2 53530  53.2173  59.2144 0001188  95.4097 264.7031 15.08840610 27179,6917.879,95.438,540.565,538.922,0.0
53530.0,STARLINK-4482,PAYLOAD,2023-02-14 20:07:26,15.08841657,0.0001087,53.2177,56.8357,106.1918,253.9194,0.00015775,2.224e-05,0.0,0 STARLINK-4482,1 53530U 22101D   23045.83849672  .00002224  00000-0  15775-3 0  9991,2 53530  53.2177  56.8357 0001087 106.1918 253.9194 15.08841657 27253,6917.875,95.437,540.492,538.988,0.0
53530.0,STARLINK-4482,PAYLOAD,2023-02-15 04:04:22,15.08836556,0.0001124,53.2176,55.3484,101.0992,259.0126,0.00013543,1.868e-05,0.0,0 STARLINK-4482,1 53530U 22101D   23046.16970037  .00001868  00000-0  13543-3 0  9992,2 53530  53.2176  55.3484 0001124 101.0992 259.0126 15.08836556 27305,6917.891,95.438,540.533,538.978,0.0
53530.0,STARLINK-4482,PAYLOAD,2023-02-15 10:25:54,15.08842708,0.0001097,53.2177,54.1594,97.4362,262.6755,0.00014322,1.992e-05,0.0,0 STARLINK-4482,1 53530U 22101D   23046.43465719  .00001992  00000-0  14322-3 0  9992,2 53530  53.2177  54.1594 0001097  97.4362 262.6755 15.08842708 27341,6917.872,95.437,540.496,538.978,0.0
53530.0,STARLINK-4482,PAYLOAD,2023-02-15 19:58:13,15.08842173,0.0001123,53.2174,52.3759,86.7377,273.3744,0.00017878,2.559e-05,0.0,0 STARLINK-4482,1 53530U 22101D   23046.83209739  .00002559  00000-0  17878-3 0  9993,2 53530  53.2174  52.3759 0001123  86.7377 273.3744 15.08842173 27408,6917.874,95.437,540.516,538.962,0.0
53530.0,STARLINK-4482,PAYLOAD,2023-02-16 02:19:45,15.08851814,0.0001323,53.217,51.1852,99.1335,260.9807,0.00032661,4.916e-05,0.0,0 STARLINK-4482,1 53530U 22101D   23047.09705265  .00004916  00000-0  32661-3 0  9993,2 53530  53.2170  51.1852 0001323  99.1335 260.9807 15.08851814 27447,6917.844,95.437,540.625,538.794,0.0
53530.0,STARLINK-4482,PAYLOAD,2023-02-16 07:05:54,15.08870284,0.0001132,53.2175,50.2936,92.0242,268.088,0.00065769,0.00010203,0.0,0 STARLINK-4482,1 53530U 22101D   23047.29576481  .00010203  00000-0  65769-3 0  9992,2 53530  53.2175  50.2936 0001132  92.0242 268.0880 15.08870284 27477,6917.788,95.436,540.436,538.87,0.0
53530.0,STARLINK-4482,PAYLOAD,2023-02-16 16:38:13,15.08849218,0.0001251,53.2175,48.5093,80.0816,280.0318,0.00014395,2.004e-05,0.0,0 STARLINK-4482,1 53530U 22101D   23047.69321020  .00002004  00000-0  14395-3 0  9992,2 53530  53.2175  48.5093 0001251  80.0816 280.0318 15.08849218 27537,6917.852,95.437,540.583,538.852,0.0
53530.0,STARLINK-4482,PAYLOAD,2023-02-16 19:48:59,15.08845479,0.0001539,53.2166,47.9199,90.0854,270.0315,-0.0001083,-2.011e-05,0.0,0 STARLINK-4482,1 53530U 22101D   23047.82569151 -.00002011  00000-0 -10830-3 0  9996,2 53530  53.2166  47.9199 0001539  90.0854 270.0315 15.08845479 27552,6917.864,95.437,540.793,538.664,0.0
53530.0,STARLINK-4482,PAYLOAD,2023-02-17 03:45:56,15.08817174,8.2e-05,53.2173,46.4282,92.0754,268.0332,-0.00061046,-9.984e-05,0.0,0 STARLINK-4482,1 53530U 22101D   23048.15689926 -.00009984  00000-0 -61046-3 0  9997,2 53530  53.2173  46.4282 0000820  92.0754 268.0332 15.08817174 27603,6917.95,95.439,540.382,539.248,0.0
53530.0,STARLINK-4482,PAYLOAD,2023-02-17 06:56:42,15.08823423,7.26e-05,53.2174,45.8336,105.1198,254.9874,0.00015836,2.232e-05,0.0,0 STARLINK-4482,1 53530U 22101D   23048.28937885  .00002232  00000-0  15836-3 0  9994,2 53530  53.2174  45.8336 0000726 105.1198 254.9874 15.08823423 27621,6917.931,95.439,540.298,539.294,0.0
53530.0,STARLINK-4482,PAYLOAD,2023-02-17 18:04:25,15.08830867,6.02e-05,53.2171,43.7526,82.3638,277.7423,0.0014575,0.00022978,0.0,0 STARLINK-4482,1 53530U 22101D   23048.75306828  .00022978  00000-0  14575-2 0  9990,2 53530  53.2171  43.7526 0000602  82.3638 277.7423 15.08830867 27694,6917.908,95.438,540.19,539.357,0.0
